[{"OBJECT_NAME":"STARLINK-37073","OBJECT_ID":"2026-049K","EPOCH":"2026-03-30T01:00:43.240032","MEAN_MOTION":15.80879161,"ECCENTRICITY":0.0001931,"INCLINATION":97.2844,"RA_OF_ASC_NODE":109.3138,"ARG_OF_PERICENTER":59.1958,"MEAN_ANOMALY":300.95,"EPHEMERIS_TYPE":0,"CLASSIFICATION_TYPE":"U","NORAD_CAT_ID":68151,"ELEMENT_SET_NO":999,"REV_AT_EPOCH":262,"BSTAR":0.00074585,"MEAN_MOTION_DOT":0.00145556,"MEAN_MOTION_DDOT":0},{"OBJECT_NAME":"STARLINK-37049","OBJECT_ID":"2026-049L","EPOCH":"2026-03-30T00:59:38.562720","MEAN_MOTION":15.80867106,"ECCENTRICITY":8.53e-5,"INCLINATION":97.2844,"RA_OF_ASC_NODE":109.3149,"ARG_OF_PERICENTER":75.328,"MEAN_ANOMALY":284.8083,"EPHEMERIS_TYPE":0,"CLASSIFICATION_TYPE":"U","NORAD_CAT_ID":68152,"ELEMENT_SET_NO":999,"REV_AT_EPOCH":262,"BSTAR":0.00092758,"MEAN_MOTION_DOT":0.00181705,"MEAN_MOTION_DDOT":0},{"OBJECT_NAME":"STARLINK-37072","OBJECT_ID":"2026-049M","EPOCH":"2026-03-30T00:58:34.815936","MEAN_MOTION":15.80735495,"ECCENTRICITY":0.0002005,"INCLINATION":97.2845,"RA_OF_ASC_NODE":109.3157,"ARG_OF_PERICENTER":93.9427,"MEAN_ANOMALY":266.207,"EPHEMERIS_TYPE":0,"CLASSIFICATION_TYPE":"U","NORAD_CAT_ID":68153,"ELEMENT_SET_NO":999,"REV_AT_EPOCH":262,"BSTAR":-0.00036738,"MEAN_MOTION_DOT":-0.00069705,"MEAN_MOTION_DDOT":0},{"OBJECT_NAME":"STARLINK-36241","OBJECT_ID":"2026-049N","EPOCH":"2026-03-30T04:00:01.999584","MEAN_MOTION":15.75177206,"ECCENTRICITY":0.0001519,"INCLINATION":97.2844,"RA_OF_ASC_NODE":109.4242,"ARG_OF_PERICENTER":86.2015,"MEAN_ANOMALY":211.9194,"EPHEMERIS_TYPE":0,"CLASSIFICATION_TYPE":"U","NORAD_CAT_ID":68154,"ELEMENT_SET_NO":999,"REV_AT_EPOCH":392,"BSTAR":-4.1513e-6,"MEAN_MOTION_DOT":-7.48e-6,"MEAN_MOTION_DDOT":0},{"OBJECT_NAME":"STARLINK-37048","OBJECT_ID":"2026-049P","EPOCH":"2026-03-30T00:54:13.731552","MEAN_MOTION":15.80871404,"ECCENTRICITY":0.0001118,"INCLINATION":97.2842,"RA_OF_ASC_NODE":109.3193,"ARG_OF_PERICENTER":68.2319,"MEAN_ANOMALY":291.9068,"EPHEMERIS_TYPE":0,"CLASSIFICATION_TYPE":"U","NORAD_CAT_ID":68155,"ELEMENT_SET_NO":999,"REV_AT_EPOCH":262,"BSTAR":0.00079011,"MEAN_MOTION_DOT":0.00154296,"MEAN_MOTION_DDOT":0},{"OBJECT_NAME":"STARLINK-36313","OBJECT_ID":"2026-049Q","EPOCH":"2026-03-30T00:55:19.136352","MEAN_MOTION":15.80793965,"ECCENTRICITY":0.0002485,"INCLINATION":97.2849,"RA_OF_ASC_NODE":109.3179,"ARG_OF_PERICENTER":23.4228,"MEAN_ANOMALY":336.7153,"EPHEMERIS_TYPE":0,"CLASSIFICATION_TYPE":"U","NORAD_CAT_ID":68156,"ELEMENT_SET_NO":999,"REV_AT_EPOCH":262,"BSTAR":0.00021112,"MEAN_MOTION_DOT":0.0004045,"MEAN_MOTION_DDOT":0},{"OBJECT_NAME":"STARLINK-37064","OBJECT_ID":"2026-049R","EPOCH":"2026-03-30T00:57:28.204992","MEAN_MOTION":15.80841825,"ECCENTRICITY":0.0001647,"INCLINATION":97.2841,"RA_OF_ASC_NODE":109.3161,"ARG_OF_PERICENTER":60.0885,"MEAN_ANOMALY":300.0546,"EPHEMERIS_TYPE":0,"CLASSIFICATION_TYPE":"U","NORAD_CAT_ID":68157,"ELEMENT_SET_NO":999,"REV_AT_EPOCH":262,"BSTAR":0.00055822,"MEAN_MOTION_DOT":0.00108248,"MEAN_MOTION_DDOT":0},{"OBJECT_NAME":"STARLINK-37069","OBJECT_ID":"2026-049S","EPOCH":"2026-03-30T04:00:01.999584","MEAN_MOTION":15.7517407,"ECCENTRICITY":0.0001281,"INCLINATION":97.2848,"RA_OF_ASC_NODE":109.4333,"ARG_OF_PERICENTER":91.7906,"MEAN_ANOMALY":226.3266,"EPHEMERIS_TYPE":0,"CLASSIFICATION_TYPE":"U","NORAD_CAT_ID":68158,"ELEMENT_SET_NO":999,"REV_AT_EPOCH":391,"BSTAR":0.00017287,"MEAN_MOTION_DOT":0.00025715,"MEAN_MOTION_DDOT":0},{"OBJECT_NAME":"STARLINK-37053","OBJECT_ID":"2026-049T","EPOCH":"2026-03-30T00:50:59.004096","MEAN_MOTION":15.80870035,"ECCENTRICITY":0.0001087,"INCLINATION":97.2847,"RA_OF_ASC_NODE":109.3219,"ARG_OF_PERICENTER":87.5194,"MEAN_ANOMALY":272.6199,"EPHEMERIS_TYPE":0,"CLASSIFICATION_TYPE":"U","NORAD_CAT_ID":68159,"ELEMENT_SET_NO":999,"REV_AT_EPOCH":262,"BSTAR":0.00096363,"MEAN_MOTION_DOT":0.00188955,"MEAN_MOTION_DDOT":0},{"OBJECT_NAME":"STARLINK-36306","OBJECT_ID":"2026-049U","EPOCH":"2026-03-30T04:00:01.999584","MEAN_MOTION":15.75174361,"ECCENTRICITY":0.0001217,"INCLINATION":97.285,"RA_OF_ASC_NODE":109.4432,"ARG_OF_PERICENTER":88.57,"MEAN_ANOMALY":251.5514,"EPHEMERIS_TYPE":0,"CLASSIFICATION_TYPE":"U","NORAD_CAT_ID":68160,"ELEMENT_SET_NO":999,"REV_AT_EPOCH":392,"BSTAR":0.00016093,"MEAN_MOTION_DOT":0.00023925,"MEAN_MOTION_DDOT":0},{"OBJECT_NAME":"STARLINK-37057","OBJECT_ID":"2026-049V","EPOCH":"2026-03-30T00:53:10.891968","MEAN_MOTION":15.80898853,"ECCENTRICITY":0.0001627,"INCLINATION":97.2842,"RA_OF_ASC_NODE":109.3201,"ARG_OF_PERICENTER":87.1361,"MEAN_ANOMALY":273.0094,"EPHEMERIS_TYPE":0,"CLASSIFICATION_TYPE":"U","NORAD_CAT_ID":68161,"ELEMENT_SET_NO":999,"REV_AT_EPOCH":262,"BSTAR":0.0019361,"MEAN_MOTION_DOT":0.00389216,"MEAN_MOTION_DDOT":0},{"OBJECT_NAME":"STARLINK-37013","OBJECT_ID":"2026-049W","EPOCH":"2026-03-30T00:45:34.362144","MEAN_MOTION":15.80842362,"ECCENTRICITY":8.96e-5,"INCLINATION":97.2841,"RA_OF_ASC_NODE":109.3262,"ARG_OF_PERICENTER":50.2191,"MEAN_ANOMALY":309.9156,"EPHEMERIS_TYPE":0,"CLASSIFICATION_TYPE":"U","NORAD_CAT_ID":68162,"ELEMENT_SET_NO":999,"REV_AT_EPOCH":262,"BSTAR":0.00060001,"MEAN_MOTION_DOT":0.00116473,"MEAN_MOTION_DDOT":0},{"OBJECT_NAME":"STARLINK-36958","OBJECT_ID":"2026-049X","EPOCH":"2026-03-30T00:47:44.072736","MEAN_MOTION":15.8093894,"ECCENTRICITY":5.58e-5,"INCLINATION":97.2841,"RA_OF_ASC_NODE":109.3251,"ARG_OF_PERICENTER":74.3171,"MEAN_ANOMALY":285.8158,"EPHEMERIS_TYPE":0,"CLASSIFICATION_TYPE":"U","NORAD_CAT_ID":68163,"ELEMENT_SET_NO":999,"REV_AT_EPOCH":262,"BSTAR":0.0016708,"MEAN_MOTION_DOT":0.00334364,"MEAN_MOTION_DDOT":0},{"OBJECT_NAME":"STARLINK-37002","OBJECT_ID":"2026-049Y","EPOCH":"2026-03-30T00:48:49.145760","MEAN_MOTION":15.8091464,"ECCENTRICITY":0.0001844,"INCLINATION":97.2842,"RA_OF_ASC_NODE":109.3238,"ARG_OF_PERICENTER":87.7824,"MEAN_ANOMALY":272.3655,"EPHEMERIS_TYPE":0,"CLASSIFICATION_TYPE":"U","NORAD_CAT_ID":68164,"ELEMENT_SET_NO":999,"REV_AT_EPOCH":262,"BSTAR":0.0013498,"MEAN_MOTION_DOT":0.00267699,"MEAN_MOTION_DDOT":0},{"OBJECT_NAME":"STARLINK-36971","OBJECT_ID":"2026-049Z","EPOCH":"2026-03-30T00:46:39.382464","MEAN_MOTION":15.80877836,"ECCENTRICITY":0.0001215,"INCLINATION":97.2838,"RA_OF_ASC_NODE":109.3261,"ARG_OF_PERICENTER":103.7162,"MEAN_ANOMALY":256.4242,"EPHEMERIS_TYPE":0,"CLASSIFICATION_TYPE":"U","NORAD_CAT_ID":68165,"ELEMENT_SET_NO":999,"REV_AT_EPOCH":262,"BSTAR":0.00095474,"MEAN_MOTION_DOT":0.00187241,"MEAN_MOTION_DDOT":0},{"OBJECT_NAME":"STARLINK-36273","OBJECT_ID":"2026-049AA","EPOCH":"2026-03-30T04:00:01.999584","MEAN_MOTION":15.75151045,"ECCENTRICITY":0.0001248,"INCLINATION":97.2851,"RA_OF_ASC_NODE":109.4447,"ARG_OF_PERICENTER":93.0257,"MEAN_ANOMALY":251.1027,"EPHEMERIS_TYPE":0,"CLASSIFICATION_TYPE":"U","NORAD_CAT_ID":68166,"ELEMENT_SET_NO":999,"REV_AT_EPOCH":392,"BSTAR":0.00053862,"MEAN_MOTION_DOT":0.00080836,"MEAN_MOTION_DDOT":0},{"OBJECT_NAME":"STARLINK-36969","OBJECT_ID":"2026-050A","EPOCH":"2026-03-29T23:34:37.506720","MEAN_MOTION":15.81017836,"ECCENTRICITY":0.0001117,"INCLINATION":53.1595,"RA_OF_ASC_NODE":180.1431,"ARG_OF_PERICENTER":74.2544,"MEAN_ANOMALY":285.8602,"EPHEMERIS_TYPE":0,"CLASSIFICATION_TYPE":"U","NORAD_CAT_ID":68167,"ELEMENT_SET_NO":999,"REV_AT_EPOCH":368,"BSTAR":0.0021181,"MEAN_MOTION_DOT":0.00442432,"MEAN_MOTION_DDOT":0}]
