STARLINK-37073          
1 68151U 26049K   26089.04216713  .00145556  00000+0  74585-3 0  9998
2 68151  97.2844 109.3138 0001931  59.1958 300.9500 15.80879161  2626
STARLINK-37049          
1 68152U 26049L   26089.04141855  .00181705  00000+0  92758-3 0  9991
2 68152  97.2844 109.3149 0000853  75.3280 284.8083 15.80867106  2621
STARLINK-37072          
1 68153U 26049M   26089.04068074 -.00069705  00000+0 -36738-3 0  9996
2 68153  97.2845 109.3157 0002005  93.9427 266.2070 15.80735495  2627
STARLINK-36241          
1 68154U 26049N   26089.16668981 -.00000748  00000+0 -41513-5 0  9994
2 68154  97.2844 109.4242 0001519  86.2015 211.9194 15.75177206  3922
STARLINK-37048          
1 68155U 26049P   26089.03765893  .00154296  00000+0  79011-3 0  9999
2 68155  97.2842 109.3193 0001118  68.2319 291.9068 15.80871404  2628
STARLINK-36313          
1 68156U 26049Q   26089.03841593  .00040450  00000+0  21112-3 0  9997
2 68156  97.2849 109.3179 0002485  23.4228 336.7153 15.80793965  2628
STARLINK-37064          
1 68157U 26049R   26089.03990978  .00108248  00000+0  55822-3 0  9995
2 68157  97.2841 109.3161 0001647  60.0885 300.0546 15.80841825  2626
STARLINK-37069          
1 68158U 26049S   26089.16668981  .00025715  00000+0  17287-3 0  9996
2 68158  97.2848 109.4333 0001281  91.7906 226.3266 15.75174070  3912
STARLINK-37053          
1 68159U 26049T   26089.03540514  .00188955  00000+0  96363-3 0  9992
2 68159  97.2847 109.3219 0001087  87.5194 272.6199 15.80870035  2626
STARLINK-36306          
1 68160U 26049U   26089.16668981  .00023925  00000+0  16093-3 0  9994
2 68160  97.2850 109.4432 0001217  88.5700 251.5514 15.75174361  3923
STARLINK-37057          
1 68161U 26049V   26089.03693162  .00389216  00000+0  19361-2 0  9998
2 68161  97.2842 109.3201 0001627  87.1361 273.0094 15.80898853  2624
STARLINK-37013          
1 68162U 26049W   26089.03164771  .00116473  00000+0  60001-3 0  9999
2 68162  97.2841 109.3262 0000896  50.2191 309.9156 15.80842362  2622
STARLINK-36958          
1 68163U 26049X   26089.03314899  .00334364  00000+0  16708-2 0  9993
2 68163  97.2841 109.3251 0000558  74.3171 285.8158 15.80938940  2623
STARLINK-37002          
1 68164U 26049Y   26089.03390215  .00267699  00000+0  13498-2 0  9999
2 68164  97.2842 109.3238 0001844  87.7824 272.3655 15.80914640  2626
STARLINK-36971          
1 68165U 26049Z   26089.03240026  .00187241  00000+0  95474-3 0  9993
2 68165  97.2838 109.3261 0001215 103.7162 256.4242 15.80877836  2624
STARLINK-36273          
1 68166U 26049AA  26089.16668981  .00080836  00000+0  53862-3 0  9999
2 68166  97.2851 109.4447 0001248  93.0257 251.1027 15.75151045  3927
STARLINK-36969          
1 68167U 26050A   26088.98237855  .00442432  00000+0  21181-2 0  9995
2 68167  53.1595 180.1431 0001117  74.2544 285.8602 15.81017836  3680
